{
  "links" : {
    "next" : "https://api.nasa.gov/neo/rest/v1/feed?start_date=2005-08-09&end_date=2005-08-09&detailed=true&api_key=t0TVs3DtDT2H8Oy2Zy8m2eVrNsAVKAexjcZXUckd",
    "prev" : "https://api.nasa.gov/neo/rest/v1/feed?start_date=2005-08-07&end_date=2005-08-07&detailed=true&api_key=t0TVs3DtDT2H8Oy2Zy8m2eVrNsAVKAexjcZXUckd",
    "self" : "https://api.nasa.gov/neo/rest/v1/feed?start_date=2005-08-08&end_date=2005-08-08&detailed=true&api_key=t0TVs3DtDT2H8Oy2Zy8m2eVrNsAVKAexjcZXUckd"
  },
  "element_count" : 8,
  "near_earth_objects" : {
    "2005-08-08" : [ {
      "links" : {
        "self" : "https://api.nasa.gov/neo/rest/v1/neo/3285298?api_key=t0TVs3DtDT2H8Oy2Zy8m2eVrNsAVKAexjcZXUckd"
      },
      "neo_reference_id" : "3285298",
      "name" : "(2005 OK3)",
      "nasa_jpl_url" : "http://ssd.jpl.nasa.gov/sbdb.cgi?sstr=3285298",
      "absolute_magnitude_h" : 21.5,
      "estimated_diameter" : {
        "kilometers" : {
          "estimated_diameter_min" : 0.1332155667,
          "estimated_diameter_max" : 0.2978790628
        },
        "meters" : {
          "estimated_diameter_min" : 133.2155666981,
          "estimated_diameter_max" : 297.8790627982
        },
        "miles" : {
          "estimated_diameter_min" : 0.0827762899,
          "estimated_diameter_max" : 0.1850934111
        },
        "feet" : {
          "estimated_diameter_min" : 437.0589598459,
          "estimated_diameter_max" : 977.2935443908
        }
      },
      "is_potentially_hazardous_asteroid" : false,
      "close_approach_data" : [ {
        "close_approach_date" : "2005-08-08",
        "epoch_date_close_approach" : 1123484400000,
        "relative_velocity" : {
          "kilometers_per_second" : "7.4245242483",
          "kilometers_per_hour" : "26728.2872939134",
          "miles_per_hour" : "16607.918291043"
        },
        "miss_distance" : {
          "astronomical" : "0.0587168501",
          "lunar" : "22.8408546448",
          "kilometers" : "8783916",
          "miles" : "5458072"
        },
        "orbiting_body" : "Earth"
      } ],
      "orbital_data" : {
        "orbit_id" : "20",
        "orbit_determination_date" : "2017-04-06 09:10:42",
        "orbit_uncertainty" : "6",
        "minimum_orbit_intersection" : ".0589485",
        "jupiter_tisserand_invariant" : "3.527",
        "epoch_osculation" : "2458000.5",
        "eccentricity" : ".5010778981865419",
        "semi_major_axis" : "2.144581843880339",
        "inclination" : "7.714397405578673",
        "ascending_node_longitude" : "134.7255397029267",
        "orbital_period" : "1147.129277749838",
        "perihelion_distance" : "1.06997928105976",
        "perihelion_argument" : "189.3855738046275",
        "aphelion_distance" : "3.219184406700918",
        "perihelion_time" : "2458183.453247944695",
        "mean_anomaly" : "302.5843533613887",
        "mean_motion" : ".3138268780883713",
        "equinox" : "J2000"
      }
    }, {
      "links" : {
        "self" : "https://api.nasa.gov/neo/rest/v1/neo/3693553?api_key=t0TVs3DtDT2H8Oy2Zy8m2eVrNsAVKAexjcZXUckd"
      },
      "neo_reference_id" : "3693553",
      "name" : "(2014 UY)",
      "nasa_jpl_url" : "http://ssd.jpl.nasa.gov/sbdb.cgi?sstr=3693553",
      "absolute_magnitude_h" : 25.3,
      "estimated_diameter" : {
        "kilometers" : {
          "estimated_diameter_min" : 0.0231502122,
          "estimated_diameter_max" : 0.0517654482
        },
        "meters" : {
          "estimated_diameter_min" : 23.150212221,
          "estimated_diameter_max" : 51.7654482198
        },
        "miles" : {
          "estimated_diameter_min" : 0.0143848705,
          "estimated_diameter_max" : 0.0321655483
        },
        "feet" : {
          "estimated_diameter_min" : 75.9521422633,
          "estimated_diameter_max" : 169.8341531374
        }
      },
      "is_potentially_hazardous_asteroid" : false,
      "close_approach_data" : [ {
        "close_approach_date" : "2005-08-08",
        "epoch_date_close_approach" : 1123484400000,
        "relative_velocity" : {
          "kilometers_per_second" : "5.691788499",
          "kilometers_per_hour" : "20490.4385964104",
          "miles_per_hour" : "12731.9616934195"
        },
        "miss_distance" : {
          "astronomical" : "0.3397634831",
          "lunar" : "132.1679992676",
          "kilometers" : "50827896",
          "miles" : "31582990"
        },
        "orbiting_body" : "Earth"
      } ],
      "orbital_data" : {
        "orbit_id" : "28",
        "orbit_determination_date" : "2017-04-10 11:58:20",
        "orbit_uncertainty" : "4",
        "minimum_orbit_intersection" : ".0333433",
        "jupiter_tisserand_invariant" : "5.365",
        "epoch_osculation" : "2458000.5",
        "eccentricity" : ".1728052416651662",
        "semi_major_axis" : "1.174261513065247",
        "inclination" : "3.564463694704387",
        "ascending_node_longitude" : "218.8265891770118",
        "orbital_period" : "464.7781117985807",
        "perihelion_distance" : ".9713429685219035",
        "perihelion_argument" : "245.6357342965719",
        "aphelion_distance" : "1.377180057608591",
        "perihelion_time" : "2457955.606674860559",
        "mean_anomaly" : "34.7727154956956",
        "mean_motion" : ".7745631536022332",
        "equinox" : "J2000"
      }
    } ]
  }
}